OSCAR 7 (AO-7)          
1 07530U 74089B   26173.50999495 -.00000042  00000+0  26889-4 0  9995
2 07530 101.9899 186.8122 0012626 120.2640  33.9567 12.53698175361183
PHASE 3B (AO-10)        
1 14129U 83058B   26172.25409077  .00000065  00000+0  00000+0 0  9992
2 14129  25.9155 218.8909 6009417 116.7875 315.5999  2.05871098295574
UOSAT 2 (UO-11)         
1 14781U 84021B   26173.65809851  .00001018  00000+0  10915-3 0  9995
2 14781  97.8059 139.1716 0008115 155.4224 204.7383 14.90794156257947
LUSAT (LO-19)           
1 20442U 90005G   26173.34484693  .00000069  00000+0  41171-4 0  9998
2 20442  98.8847 195.2926 0011416 185.6168 174.4890 14.34124429903133
EYESAT A (AO-27)        
1 22825U 93061C   26173.45393392  .00000057  00000+0  38710-4 0  9999
2 22825  98.6878 240.8657 0009549  86.2752 273.9523 14.30943433707757
ITAMSAT (IO-26)         
1 22826U 93061D   26173.43177511  .00000058  00000+0  38812-4 0  9995
2 22826  98.6825 240.7615 0009995  71.4845 288.7423 14.31370490708063
RADIO ROSTO (RS15)      
1 23439U 94085A   26173.61470456 -.00000044  00000+0 -44780-4 0  9995
2 23439  64.8186 294.4383 0156121   2.8733 357.3053 11.27583462296516
JAS-2 (FO-29)           
1 24278U 96046B   26173.48650619 -.00000020  00000+0  12357-4 0  9990
2 24278  98.5236  21.6325 0350929  82.7220 281.3662 13.53274621473888
TECHSAT 1B (GO-32)      
1 25397U 98043D   26173.68382816  .00000037  00000+0  36155-4 0  9994
2 25397  99.0069 166.5812 0001325 152.1038 208.0212 14.24429238452118
ISS (ZARYA)             
1 25544U 98067A   26173.73662978  .00008151  00000+0  15395-3 0  9997
2 25544  51.6325 272.6245 0004455 218.9710 141.0958 15.49373286572615
PCSAT (NO-44)           
1 26931U 01043C   26173.60725152  .00000029  00000+0  41662-4 0  9999
2 26931  67.0498 230.2533 0006057 264.8434  95.1977 14.31957590291222
SAUDISAT 1C (SO-50)     
1 27607U 02058C   26173.21270606  .00000697  00000+0  99777-4 0  9994
2 27607  64.5516 113.4366 0075144 261.5322  97.7262 14.83055677265201
CUTE-1 (CO-55)          
1 27844U 03031E   26173.72726103  .00000201  00000+0  10595-3 0  9994
2 27844  98.6736 182.2165 0009866 162.2410 197.9116 14.24338450192466
CUBESAT XI-IV (CO-57)   
1 27848U 03031J   26173.43736598  .00000176  00000+0  96419-4 0  9996
2 27848  98.6767 181.6388 0009388 181.3421 178.7734 14.23623160192127
MOZHAETS 4 (RS22)       
1 27939U 03042A   26173.85795519  .00001035  00000+0  16757-3 0  9994
2 27939  98.3477 358.3770 0009960 249.2406 222.3722 14.73476485216383
CUBESAT XI-V            
1 28895U 05043F   26173.70240492  .00000991  00000+0  16368-3 0  9996
2 28895  98.2990 329.4398 0014027 182.9407 177.1719 14.72643296102565
CUTE-1.7+APD II (CO-65) 
1 32785U 08021C   26173.81711056  .00004099  00000+0  25978-3 0  9999
2 32785  97.8280 155.3526 0009270  21.9068 338.2554 15.09498177986040
SEEDS II (CO-66)        
1 32791U 08021J   26173.42331423  .00013901  00000+0  43974-3 0  9997
2 32791  97.7527 171.5713 0000370 315.0344  45.0867 15.32901579988092
YUBILEINY (RS30)        
1 32953U 08025A   26173.81240424  .00000007  00000+0 -19660-4 0  9994
2 32953  82.5048 351.9401 0018657 300.9406  58.9840 12.43179500820391
KKS-1 (KISEKI)          
1 33499U 09002H   26173.72133821  .00000892  00000+0  11626-3 0  9992
2 33499  98.1187  96.2512 0006381 274.0591  85.9893 14.83135192937014
SWISSCUBE               
1 35932U 09051B   26173.29995435  .00000690  00000+0  14600-3 0  9990
2 35932  98.4032  81.2773 0006322 185.7057 174.4073 14.62489443889909
BEESAT-1                
1 35933U 09051C   26173.31205070  .00000574  00000+0  12495-3 0  9994
2 35933  98.3960  80.9143 0004539 198.1423 161.9616 14.61727124889936
ITUPSAT1                
1 35935U 09051E   26173.30742868  .00000516  00000+0  11648-3 0  9991
2 35935  98.4044  80.0961 0006492 215.3057 144.7713 14.60446745889489
XIWANG-1 (HOPE-1)       
1 36122U 09072B   26173.79181853 -.00000332  00000+0 -75190-3 0  9997
2 36122 100.4028 127.5345 0006983 217.6573 142.4051 13.16437735793742
O/OREOS (USA 219)       
1 37224U 10062C   26173.68762769  .00001508  00000+0  14800-3 0  9996
2 37224  71.9701  67.8801 0012763  51.3298 308.9012 14.93762586117465
JUGNU                   
1 37839U 11058B   26173.45104062  .00000382  00000+0  60037-4 0  9998
2 37839  19.9606 276.4498 0018572 134.0418 299.2901 14.13777929759774
SRMSAT                  
1 37841U 11058D   26172.95148441  .00000351  00000+0  46373-4 0  9997
2 37841  19.9733  30.6303 0011714 256.2995 137.7067 14.11576407758494
STRAND-1                
1 39090U 13009E   26173.48650387  .00000193  00000+0  79259-4 0  9992
2 39090  98.3925 353.5904 0008012 207.9512 152.1246 14.37165718697821
ZACUBE-1 (TSHEPISOSAT)  
1 39417U 13066B   26173.33975722  .00002077  00000+0  16390-3 0  9994
2 39417  97.8063 135.7033 0041482 229.9888 129.7692 15.01210891681500
GOMX-1                  
1 39430U 13066Q   26173.83766495  .00001427  00000+0  21904-3 0  9994
2 39430  97.6484  13.9436 0129962  59.6466 301.7518 14.69476850670749
