OBJECT_NAME,OBJECT_ID,EPOCH,MEAN_MOTION,ECCENTRICITY,INCLINATION,RA_OF_ASC_NODE,ARG_OF_PERICENTER,MEAN_ANOMALY,EPHEMERIS_TYPE,CLASSIFICATION_TYPE,NORAD_CAT_ID,ELEMENT_SET_NO,REV_AT_EPOCH,BSTAR,MEAN_MOTION_DOT,MEAN_MOTION_DDOT
OSCAR 7 (AO-7),1974-089B,2026-06-22T12:14:23.563680,12.53698175,.00126264,101.9899,186.8122,120.2640,33.9567,0,U,7530,999,36118,.26888938E-4,-.42E-6,0
PHASE 3B (AO-10),1983-058B,2026-06-21T06:05:53.442528,2.05871098,.60094179,25.9155,218.8909,116.7875,315.5999,0,U,14129,999,29557,0,.65E-6,0
UOSAT 2 (UO-11),1984-021B,2026-06-22T15:47:39.711264,14.90794156,.00081152,97.8059,139.1716,155.4224,204.7383,0,U,14781,999,25794,.10915103E-3,.1018E-4,0
LUSAT (LO-19),1990-005G,2026-06-22T08:16:34.774752,14.34124429,.00114165,98.8847,195.2926,185.6168,174.4890,0,U,20442,999,90313,.4117115E-4,.69E-6,0
EYESAT A (AO-27),1993-061C,2026-06-22T10:53:39.890688,14.30943433,.00095494,98.6878,240.8657,86.2752,273.9523,0,U,22825,999,70775,.38709768E-4,.57E-6,0
ITAMSAT (IO-26),1993-061D,2026-06-22T10:21:45.369504,14.31370490,.00099958,98.6825,240.7615,71.4845,288.7423,0,U,22826,999,70806,.3881151E-4,.58E-6,0
RADIO ROSTO (RS15),1994-085A,2026-06-22T14:45:10.473984,11.27583462,.01561214,64.8186,294.4383,2.8733,357.3053,0,U,23439,999,29651,-.44780138E-4,-.44E-6,0
JAS-2 (FO-29),1996-046B,2026-06-22T11:40:34.134816,13.53274621,.03509299,98.5236,21.6325,82.7220,281.3662,0,U,24278,999,47388,.12357086E-4,-.2E-6,0
TECHSAT 1B (GO-32),1998-043D,2026-06-22T16:24:42.753024,14.24429238,.00013259,99.0069,166.5812,152.1038,208.0212,0,U,25397,999,45211,.36154593E-4,.37E-6,0
ISS (ZARYA),1998-067A,2026-06-22T17:40:44.812992,15.49373286,.00044556,51.6325,272.6245,218.9710,141.0958,0,U,25544,999,57261,.15394615E-3,.8151E-4,0
PCSAT (NO-44),2001-043C,2026-06-22T14:34:26.531328,14.31957590,.0006057,67.0498,230.2533,264.8434,95.1977,0,U,26931,999,29122,.41662019E-4,.29E-6,0
SAUDISAT 1C (SO-50),2002-058C,2026-06-22T05:06:17.803584,14.83055677,.00751442,64.5516,113.4366,261.5322,97.7262,0,U,27607,999,26520,.99776982E-4,.697E-5,0
CUTE-1 (CO-55),2003-031E,2026-06-22T17:27:15.352992,14.24338450,.00098661,98.6736,182.2165,162.2410,197.9116,0,U,27844,999,19246,.10595143E-3,.201E-5,0
CUBESAT XI-IV (CO-57),2003-031J,2026-06-22T10:29:48.420672,14.23623160,.00093886,98.6767,181.6388,181.3421,178.7734,0,U,27848,999,19212,.96418739E-4,.176E-5,0
MOZHAETS 4 (RS22),2003-042A,2026-06-22T20:35:27.328416,14.73476485,.00099606,98.3477,358.3770,249.2406,222.3722,0,U,27939,999,21638,.16757144E-3,.1035E-4,0
CUBESAT XI-V,2005-043F,2026-06-22T16:51:27.785088,14.72643296,.00140275,98.2990,329.4398,182.9407,177.1719,0,U,28895,999,10256,.16368491E-3,.991E-5,0
CUTE-1.7+APD II (CO-65),2008-021C,2026-06-22T19:36:38.352384,15.09498177,.00092702,97.8280,155.3526,21.9068,338.2554,0,U,32785,999,98604,.25978203E-3,.4099E-4,0
SEEDS II (CO-66),2008-021J,2026-06-22T10:09:34.349472,15.32901579,.00003707,97.7527,171.5713,315.0344,45.0867,0,U,32791,999,98809,.43973648E-3,.13901E-3,0
YUBILEINY (RS30),2008-025A,2026-06-22T19:29:51.726336,12.43179500,.00186578,82.5048,351.9401,300.9406,58.9840,0,U,32953,999,82039,-.1965979E-4,.7E-7,0
KKS-1 (KISEKI),2009-002H,2026-06-22T17:18:43.621344,14.83135192,.00063819,98.1187,96.2512,274.0591,85.9893,0,U,33499,999,93701,.11625551E-3,.892E-5,0
SWISSCUBE,2009-051B,2026-06-22T07:11:56.055840,14.62489443,.00063224,98.4032,81.2773,185.7057,174.4073,0,U,35932,999,88990,.14600183E-3,.69E-5,0
BEESAT-1,2009-051C,2026-06-22T07:29:21.180480,14.61727124,.00045395,98.3960,80.9143,198.1423,161.9616,0,U,35933,999,88993,.12494772E-3,.574E-5,0
ITUPSAT1,2009-051E,2026-06-22T07:22:41.837952,14.60446745,.00064926,98.4044,80.0961,215.3057,144.7713,0,U,35935,999,88948,.11647633E-3,.516E-5,0
XIWANG-1 (HOPE-1),2009-072B,2026-06-22T19:00:13.120992,13.16437735,.00069837,100.4028,127.5345,217.6573,142.4051,0,U,36122,999,79374,-.75189853E-3,-.332E-5,0
O/OREOS (USA 219),2010-062C,2026-06-22T16:30:11.032416,14.93762586,.00127631,71.9701,67.8801,51.3298,308.9012,0,U,37224,999,11746,.14800409E-3,.1508E-4,0
JUGNU,2011-058B,2026-06-22T10:49:29.909568,14.13777929,.00185729,19.9606,276.4498,134.0418,299.2901,0,U,37839,999,75977,.60036746E-4,.382E-5,0
SRMSAT,2011-058D,2026-06-21T22:50:08.253024,14.11576407,.00117146,19.9733,30.6303,256.2995,137.7067,0,U,37841,999,75849,.46372796E-4,.351E-5,0
STRAND-1,2013-009E,2026-06-22T11:40:33.934368,14.37165718,.00080121,98.3925,353.5904,207.9512,152.1246,0,U,39090,999,69782,.79259046E-4,.193E-5,0
ZACUBE-1 (TSHEPISOSAT),2013-066B,2026-06-22T08:09:15.023808,15.01210891,.00414828,97.8063,135.7033,229.9888,129.7692,0,U,39417,999,68150,.16389845E-3,.2077E-4,0
GOMX-1,2013-066Q,2026-06-22T20:06:14.251680,14.69476850,.01299627,97.6484,13.9436,59.6466,301.7518,0,U,39430,999,67074,.21903975E-3,.1427E-4,0
